OBJECT_NAME,OBJECT_ID,EPOCH,MEAN_MOTION,ECCENTRICITY,INCLINATION,RA_OF_ASC_NODE,ARG_OF_PERICENTER,MEAN_ANOMALY,EPHEMERIS_TYPE,CLASSIFICATION_TYPE,NORAD_CAT_ID,ELEMENT_SET_NO,REV_AT_EPOCH,BSTAR,MEAN_MOTION_DOT,MEAN_MOTION_DDOT
GSAT-15,2015-065A,2026-06-05T22:31:03.677664,1.00271204,.00041804,0.0467,114.6322,323.2410,247.7685,0,U,41028,999,3868,0,-.245E-5,0
BADR-7 (ARABSAT-6B),2015-065B,2026-06-05T23:16:29.329824,1.00269702,.00031412,0.0415,240.8612,316.5066,72.1545,0,U,41029,999,3865,0,.157E-5,0
LAOSAT 1,2015-067A,2026-06-05T22:41:02.721696,1.00268114,.00022128,0.0372,212.6676,188.1518,322.3230,0,U,41034,999,3874,0,-.33E-5,0
TELSTAR 12V,2015-068A,2026-06-05T22:00:07.148160,1.00271721,.00024978,0.0158,13.7321,58.2461,137.4076,0,U,41036,999,3851,0,-.106E-5,0
ELEKTRO-L 2,2015-074A,2026-06-05T23:42:55.922400,1.00272284,.00013042,6.6659,70.6588,282.3931,242.6125,0,U,41105,999,3839,0,-.105E-5,0
COSMOS 2513,2015-075A,2026-06-05T08:45:56.287584,1.00270033,.0003886,0.0789,101.0025,328.4191,36.1180,0,U,41121,999,3843,0,-.125E-5,0
EXPRESS-AMU1,2015-082A,2026-06-05T13:41:20.613408,1.00273609,.00030988,0.0170,314.8761,124.9185,55.6672,0,U,41191,999,3815,0,.168E-5,0
GAOFEN-4,2015-083A,2026-06-05T22:34:33.342816,1.00269593,.00043359,0.3282,83.7730,108.9436,145.9795,0,U,41194,999,3841,0,-.322E-5,0
BELINTERSAT-1,2016-001A,2026-06-05T22:19:04.826208,1.00272438,.00021631,0.0425,138.4380,254.3178,247.8694,0,U,41238,999,3812,0,.12E-5,0
IRNSS-1E,2016-003A,2026-06-05T22:39:30.196800,1.00270338,.00178855,33.2108,59.9132,179.6163,106.4591,0,U,41241,999,3796,0,-.295E-5,0
EUTELSAT 9B,2016-005A,2026-06-05T22:06:36.526176,1.00272023,.00020458,0.0530,68.8168,336.2309,189.9339,0,U,41310,999,3800,0,.74E-6,0
SES-9,2016-013A,2026-06-05T22:35:10.783392,1.00271360,.00024424,0.0094,338.8396,103.1676,259.4596,0,U,41380,999,3732,0,-.332E-5,0
EUTELSAT 65 WEST A,2016-014A,2026-06-05T21:45:45.080064,1.00274012,.00024615,0.0485,359.6366,65.8405,90.0925,0,U,41382,999,3741,0,-.264E-5,0
IRNSS-1F,2016-015A,2026-06-05T23:24:26.860896,1.00277175,.00166717,5.3211,97.0346,186.8917,354.1092,0,U,41384,999,3755,0,.171E-5,0
BEIDOU-2 IGSO-6,2016-021A,2026-06-06T00:20:02.745024,1.00261920,.00572211,60.2097,38.1520,231.5167,83.2996,0,U,41434,999,3736,0,-.145E-5,0
IRNSS-1G,2016-027A,2026-06-05T19:15:55.896192,1.00271950,.00074426,5.1702,97.7362,351.9930,223.0710,0,U,41469,999,3706,0,-.321E-5,0
JCSAT-2B,2016-028A,2026-06-05T17:40:15.868992,1.00272565,.00011953,0.0180,336.8898,114.2439,222.1047,0,U,41471,999,3701,0,-.152E-5,0
THAICOM 8,2016-031A,2026-06-05T21:59:51.978912,1.00271126,.00039162,0.0610,41.0833,15.3314,246.4422,0,U,41552,999,3660,0,-.109E-5,0
INTELSAT 31 (IS-31),2016-035A,2026-06-05T21:37:15.892896,1.00271050,.00007528,0.0165,261.4066,332.9072,249.2887,0,U,41581,999,3657,0,-.138E-5,0
BEIDOU-2 G7,2016-037A,2026-06-05T22:35:48.223968,1.00270813,.00073549,1.6919,69.2217,1.0839,273.5752,0,U,41586,999,677,0,-.34E-5,0
ABS-2A (MONGOLSAT-1),2016-038A,2026-06-05T22:25:41.691648,1.00268578,.00015035,0.0177,334.2552,53.7704,277.5054,0,U,41588,999,3659,0,0,0
EUTELSAT 117 WEST B,2016-038B,2026-06-05T14:40:18.258816,1.00270561,.00002234,0.0104,144.4859,204.6601,7.9647,0,U,41589,999,3654,0,.1E-7,0
BRISAT,2016-039A,2026-06-05T21:04:38.633088,1.00272384,.00022543,0.0168,304.2480,128.2896,288.4345,0,U,41591,999,3649,0,-.183E-5,0
ECHOSTAR 18,2016-039B,2026-06-05T11:30:49.441824,1.00273514,.0001812,0.0178,350.1339,94.5928,280.5382,0,U,41592,999,3650,0,-.27E-5,0
MUOS-5,2016-041A,2026-06-05T21:33:38.740320,1.00270652,.01966514,2.2286,301.4270,260.8769,270.2032,0,U,41622,999,3697,0,-.108E-5,0
TIANTONG-1 1,2016-048A,2026-06-05T21:02:21.731424,1.00272673,.00062019,3.8271,43.3175,40.7556,227.2497,0,U,41725,999,3615,0,-.306E-5,0
JCSAT-16,2016-050A,2026-06-05T17:37:23.644416,1.00271982,.00012124,0.0171,337.1086,114.5880,210.7598,0,U,41729,999,3595,0,-.238E-5,0
USA 270,2016-052A,2026-06-05T10:04:03.097920,1.00283253,.0008506,4.1687,77.3372,337.2537,174.5297,0,U,41744,999,2801,0,.91E-6,0
USA 271,2016-052B,2026-06-05T07:15:21.540960,1.00263603,.001079,4.1397,77.4076,157.5545,250.4094,0,U,41745,999,2780,0,-.347E-5,0
INTELSAT 36 (IS-36),2016-053A,2026-06-05T10:25:18.215904,1.00271379,.00016708,0.0109,5.6814,335.1773,137.8309,0,U,41747,999,3584,0,-.12E-6,0
INSAT-3DR,2016-054A,2026-06-05T22:47:45.547872,1.00270840,.00103023,0.0773,87.8584,187.0930,35.3640,0,U,41752,999,3570,0,-.64E-6,0
GSAT-18,2016-060A,2026-06-05T22:47:45.573792,1.00271562,.00058787,0.0358,110.8265,318.9559,240.5289,0,U,41793,999,3541,0,-.64E-6,0
SKY MUSTER 2 (NBN1B),2016-060B,2026-06-05T17:37:38.620128,1.00271849,.00017225,0.0153,313.2762,120.4206,229.6803,0,U,41794,999,3540,0,-.231E-5,0
HIMAWARI-9,2016-064A,2026-06-05T22:44:32.386848,1.00274382,.00009658,0.0408,167.8179,298.9963,269.4538,0,U,41836,999,3509,0,-.261E-5,0
SHIJIAN-17 (SJ-17),2016-065A,2026-06-05T13:47:34.714176,0.99853894,.0002067,5.7229,72.7439,20.6340,260.7763,0,U,41838,999,3508,0,-.8E-7,0
GOES 16,2016-071A,2026-06-05T21:34:31.155744,1.00271058,.0000596,0.3111,85.6368,318.7456,68.9135,0,U,41866,999,3499,0,-.78E-6,0
TIANLIAN 1-04,2016-072A,2026-06-05T19:29:24.605376,1.00268615,.00422579,0.8400,83.0494,89.7046,190.6739,0,U,41869,999,3518,0,.43E-6,0
WGS F8 (USA 272),2016-075A,2026-06-05T21:04:23.657376,1.00271120,.00003101,0.0061,349.0363,351.0974,20.0920,0,U,41879,999,3470,0,-.19E-5,0
FENGYUN 4A,2016-077A,2026-06-05T22:39:40.353120,1.00275631,.00081627,2.2940,80.4054,151.7051,125.9248,0,U,41882,999,3481,0,-.344E-5,0
ECHOSTAR 19,2016-079A,2026-06-05T14:45:55.221408,1.00272828,.00015766,0.0181,357.4978,87.3351,293.6079,0,U,41893,999,3458,0,-.126E-5,0
JCSAT-110A (JCSAT-15),2016-082A,2026-06-05T16:21:13.718592,1.00270080,.00008633,0.0170,334.4057,128.1044,146.9734,0,U,41903,999,3464,0,-.338E-5,0
STAR ONE D1,2016-082B,2026-06-05T21:40:23.094048,1.00269854,.00020869,0.0115,29.8118,58.0275,47.5741,0,U,41904,999,3466,0,-.198E-5,0
TJS-2,2017-001A,2026-06-05T23:45:51.736896,1.00272546,.00007564,0.8038,85.4837,14.6057,217.3282,0,U,41911,999,3460,0,.6E-7,0
SBIRS GEO-4 (USA 273),2017-004A,2026-06-05T23:12:00.279360,1.00272437,.00023272,2.2212,42.9701,28.0283,192.3008,0,U,41937,999,3448,0,.136E-5,0
HISPASAT 36W-1,2017-006A,2026-06-05T09:55:27.215616,1.00268599,.00010139,0.0061,256.6088,170.5309,299.5722,0,U,41942,999,3412,0,-.232E-5,0
TELKOM 3S,2017-007A,2026-06-05T22:38:03.007968,1.00271985,.00024237,0.0151,288.9491,147.3495,275.6019,0,U,41944,999,3402,0,-.35E-5,0
INTELSAT 32E (IS-32E),2017-007B,2026-06-05T18:26:41.938080,1.00270705,.0000563,0.0178,344.6873,4.7820,138.2227,0,U,41945,999,3411,0,-.256E-5,0
ECHOSTAR 23,2017-014A,2026-06-04T21:35:20.092704,1.00271139,.00018595,0.0176,5.8946,69.5571,31.8276,0,U,42070,999,3380,0,-.45E-6,0
WGS F9 (USA 275),2017-016A,2026-06-05T18:35:33.589248,1.00271562,.00004995,0.0091,283.8133,146.4858,90.8043,0,U,42075,999,3378,0,-.84E-6,0
SES-10,2017-017A,2026-06-05T13:11:54.791808,1.00272878,.00030122,0.0238,37.3238,46.7131,301.0313,0,U,42432,999,3363,0,-.26E-5,0
CHINASAT 16 (SJ-13),2017-018A,2026-06-05T19:10:33.910176,1.00273863,.00037744,0.1016,92.2536,134.9826,65.1567,0,U,42662,999,3363,0,-.34E-5,0
KOREASAT 7,2017-023A,2026-06-05T22:37:25.568256,1.00273180,.00005555,0.0201,334.4079,67.4459,307.7517,0,U,42691,999,3325,0,-.349E-5,0
SGDC,2017-023B,2026-06-05T12:03:49.310784,1.00270223,.00031095,0.0184,43.4409,42.0956,274.5046,0,U,42692,999,3328,0,-.237E-5,0
GSAT-9,2017-024A,2026-06-05T23:01:46.319232,1.00273775,.00025195,0.0166,288.9087,141.2754,266.9740,0,U,42695,999,3318,0,-.274E-5,0
INMARSAT 5-F4,2017-025A,2026-06-05T22:20:27.194784,1.00270113,.00003246,0.0177,346.6146,42.9204,256.4180,0,U,42698,999,3316,0,.88E-6,0
SES-15,2017-026A,2026-06-05T21:27:21.456576,1.00270017,.00006576,0.0201,329.7144,95.1567,22.1351,0,U,42709,999,732,0,.73E-6,0
QZS-2 (MICHIBIKI-2),2017-028A,2026-06-05T12:36:28.614816,1.00287038,.07605892,39.4451,243.3265,269.1343,71.7999,0,U,42738,999,750,0,-.153E-5,0
VIASAT-2,2017-029A,2026-06-05T13:11:02.374656,1.00271951,.00004065,0.0180,291.6831,147.0218,303.1536,0,U,42740,999,3308,0,-.253E-5,0
EUTELSAT 172B,2017-029B,2026-06-05T13:40:57.453888,1.00270387,.00001273,0.0118,87.6965,37.1820,146.3676,0,U,42741,999,3362,0,.7E-7,0
GSAT-19,2017-031A,2026-06-05T18:52:38.347680,1.00270583,.00070567,0.1036,91.2583,348.0167,145.9659,0,U,42747,999,3303,0,.138E-5,0
ECHOSTAR 21,2017-032A,2026-06-05T20:24:38.811744,1.00270510,.00024224,1.7720,354.9477,82.9956,132.7718,0,U,42749,999,3298,0,.77E-6,0
BULGARIASAT-1,2017-038A,2026-06-05T06:40:56.661312,1.00276476,.00037876,0.0637,89.0627,356.0870,270.7040,0,U,42801,999,3272,0,.24E-6,0
HELLAS-SAT 3,2017-040A,2026-06-05T18:50:08.587104,1.00272621,.00048463,0.0513,49.4168,0.2081,166.1182,0,U,42814,999,3269,0,.165E-5,0
GSAT-17,2017-040B,2026-06-05T22:31:03.677664,1.00270822,.00016409,0.0979,88.6299,215.2634,21.7451,0,U,42815,999,3267,0,-.245E-5,0
INTELSAT 35E (IS-35E),2017-041A,2026-06-05T21:54:29.242080,1.00273587,.0001928,0.0114,34.2311,39.7268,114.5187,0,U,42818,999,3270,0,-.225E-5,0
COSMOS 2520,2017-046A,2026-06-05T12:01:14.823264,1.00266193,.00014254,0.0454,87.4825,56.2363,335.5518,0,U,42907,999,3228,0,.15E-5,0
TDRS 13,2017-047A,2026-06-05T22:01:07.051872,1.00272393,.00146669,3.4486,2.4415,104.5208,106.2202,0,U,42915,999,3223,0,-.88E-6,0
QZS-3 (MICHIBIKI-3),2017-048A,2026-06-05T22:40:32.769408,1.00271328,.00028267,0.0588,190.6920,253.6104,277.2424,0,U,42917,999,3214,0,-.335E-5,0
AMAZONAS 5,2017-053A,2026-06-05T13:13:39.624384,1.00272708,.00028167,0.0337,320.1790,69.4832,1.7513,0,U,42934,999,3192,0,-.27E-5,0
ASIASAT 9,2017-057A,2026-06-05T22:39:10.400832,1.00269906,.00023876,0.0049,350.5143,77.8933,287.8523,0,U,42942,999,3174,0,-.347E-5,0
INTELSAT 37E (IS-37E),2017-059A,2026-06-05T21:59:14.731872,1.00271821,.00025828,0.0149,22.0826,69.3321,114.7535,0,U,42950,999,3195,0,-.128E-5,0
BSAT-4A,2017-059B,2026-06-05T19:10:18.932736,1.00270135,.00044626,0.0345,355.2699,71.8966,224.4728,0,U,42951,999,3168,0,-.337E-5,0
